NORAD_CAT_ID,OBJECT_NAME,OBJECT_TYPE,EPOCH,MEAN_MOTION,ECCENTRICITY,INCLINATION,RA_OF_ASC_NODE,ARG_OF_PERICENTER,MEAN_ANOMALY,BSTAR,MEAN_MOTION_DOT,MEAN_MOTION_DDOT,TLE_LINE0,TLE_LINE1,TLE_LINE2,SEMIMAJOR_AXIS,PERIOD,APOGEE,PERIGEE,DECAYED
53964.0,STARLINK-4633,PAYLOAD,2024-03-13 10:59:40,15.08837831,0.0001562,53.211,244.4509,84.8188,275.2982,3.0917e-05,2.04e-06,0.0,0 STARLINK-4633,1 53964U 22125A   24073.45810395  .00000204  00000-0  30917-4 0  9990,2 53964  53.2110 244.4509 0001562  84.8188 275.2982 15.08837831 79689,6917.887,95.438,540.833,538.671,0.0
53964.0,STARLINK-4633,PAYLOAD,2024-03-13 17:21:12,15.08835688,0.0001586,53.212,243.2614,84.7154,275.4019,1.961e-05,2.4e-07,0.0,0 STARLINK-4633,1 53964U 22125A   24073.72306629  .00000024  00000-0  19610-4 0  9997,2 53964  53.2120 243.2614 0001586  84.7154 275.4019 15.08835688 79795,6917.894,95.438,540.856,538.661,0.0
53964.0,STARLINK-4633,PAYLOAD,2024-03-14 04:28:54,15.08853164,0.0001637,53.2153,241.1811,85.8015,274.3164,-0.00010788,-2.005e-05,0.0,0 STARLINK-4633,1 53964U 22125A   24074.18674116 -.00002005  00000-0 -10788-3 0  9996,2 53964  53.2153 241.1811 0001637  85.8015 274.3164 15.08853164 79868,6917.84,95.437,540.838,538.573,0.0
53964.0,STARLINK-4633,PAYLOAD,2024-03-15 10:41:14,15.08843723,0.0001788,53.2157,235.5311,86.4073,273.7123,8.6084e-05,1.082e-05,0.0,0 STARLINK-4633,1 53964U 22125A   24075.44530466  .00001082  00000-0  86084-4 0  9990,2 53964  53.2157 235.5311 0001788  86.4073 273.7123 15.08843723 80053,6917.869,95.437,540.971,538.497,0.0
53964.0,STARLINK-4633,PAYLOAD,2024-03-16 13:42:47,15.08841959,0.0001494,53.2146,230.4725,91.7873,268.329,5.338e-05,5.62e-06,0.0,0 STARLINK-4633,1 53964U 22125A   24076.57138428  .00000562  00000-0  53380-4 0  9992,2 53964  53.2146 230.4725 0001494  91.7873 268.3290 15.08841959 80150,6917.874,95.437,540.773,538.706,0.0
53964.0,STARLINK-4633,PAYLOAD,2024-03-16 16:53:33,15.08842252,0.0001338,53.2173,229.8771,102.3052,257.809,9.1251e-05,1.165e-05,0.0,0 STARLINK-4633,1 53964U 22125A   24076.70386370  .00001165  00000-0  91251-4 0  9997,2 53964  53.2173 229.8771 0001338 102.3052 257.8090 15.08842252 80246,6917.874,95.437,540.664,538.813,0.0
53964.0,STARLINK-4633,PAYLOAD,2024-03-17 13:33:34,15.08837506,0.0001396,53.2173,226.012,103.7108,256.404,2.7517e-05,1.5e-06,0.0,0 STARLINK-4633,1 53964U 22125A   24077.56498798  .00000150  00000-0  27517-4 0  9997,2 53964  53.2173 226.0120 0001396 103.7108 256.4040 15.08837506 80307,6917.888,95.438,540.719,538.787,0.0
53964.0,STARLINK-4633,PAYLOAD,2024-03-17 16:44:21,15.08838636,0.0001354,53.217,225.4177,94.6194,265.4952,3.0899e-05,2.04e-06,0.0,0 STARLINK-4633,1 53964U 22125A   24077.69746736  .00000204  00000-0  30899-4 0  9996,2 53964  53.2170 225.4177 0001354  94.6194 265.4952 15.08838636 80392,6917.885,95.438,540.686,538.813,0.0
53964.0,STARLINK-4633,PAYLOAD,2024-03-18 18:10:31,15.08837377,0.0001357,53.2172,220.6598,89.0482,271.0665,4.3422e-05,4.03e-06,0.0,0 STARLINK-4633,1 53964U 22125A   24078.75730971  .00000403  00000-0  43422-4 0  9995,2 53964  53.2172 220.6598 0001357  89.0482 271.0665 15.08837377 80552,6917.888,95.438,540.692,538.815,0.0
53964.0,STARLINK-4633,PAYLOAD,2024-03-19 02:07:26,15.08845355,0.0001412,53.2176,219.1767,93.0358,267.0796,0.00011861,1.601e-05,0.0,0 STARLINK-4633,1 53964U 22125A   24079.08850315  .00001601  00000-0  11861-3 0  9999,2 53964  53.2176 219.1767 0001412  93.0358 267.0796 15.08845355 80607,6917.864,95.437,540.706,538.752,0.0
53964.0,STARLINK-4633,PAYLOAD,2024-03-19 08:28:59,15.08841231,0.0001638,53.2155,217.9887,82.458,277.6598,0.00016967,2.413e-05,0.0,0 STARLINK-4633,1 53964U 22125A   24079.35346687  .00002413  00000-0  16967-3 0  9995,2 53964  53.2155 217.9887 0001638  82.4580 277.6598 15.08841231 80574,6917.877,95.437,540.875,538.608,0.0
53964.0,STARLINK-4633,PAYLOAD,2024-03-19 13:15:09,15.08836543,0.0001567,53.2158,217.0957,84.7834,275.3337,0.00010845,1.438e-05,0.0,0 STARLINK-4633,1 53964U 22125A   24079.55219179  .00001438  00000-0  10845-3 0  9997,2 53964  53.2158 217.0957 0001567  84.7834 275.3337 15.08836543 80671,6917.891,95.438,540.84,538.672,0.0
53964.0,STARLINK-4633,PAYLOAD,2024-03-20 13:05:56,15.08841107,0.0001516,53.2185,212.631,83.0857,277.0307,-5.9697e-06,-3.83e-06,0.0,0 STARLINK-4633,1 53964U 22125A   24080.54579487 -.00000383  00000-0 -59697-5 0  9999,2 53964  53.2185 212.6310 0001516  83.0857 277.0307 15.08841107 80753,6917.877,95.437,540.791,538.693,0.0
53964.0,STARLINK-4633,PAYLOAD,2024-03-20 16:16:42,15.0884036,0.0001512,53.2184,212.0364,85.955,274.1614,-1.6171e-05,-5.45e-06,0.0,0 STARLINK-4633,1 53964U 22125A   24080.67827514 -.00000545  00000-0 -16171-4 0  9999,2 53964  53.2184 212.0364 0001512  85.9550 274.1614 15.08840360 80841,6917.879,95.438,540.79,538.698,0.0
53964.0,STARLINK-4633,PAYLOAD,2024-03-21 14:32:06,15.0883451,0.0001236,53.2181,207.8739,96.978,263.1353,0.0001872,2.692e-05,0.0,0 STARLINK-4633,1 53964U 22125A   24081.60563453  .00002692  00000-0  18720-3 0  9996,2 53964  53.2181 207.8739 0001236  96.9780 263.1353 15.08834510 80912,6917.897,95.438,540.617,538.907,0.0
53964.0,STARLINK-4633,PAYLOAD,2024-03-21 16:07:29,15.08845794,0.0001476,53.2174,207.5799,91.9469,268.1692,0.00013315,1.832e-05,0.0,0 STARLINK-4633,1 53964U 22125A   24081.67186899  .00001832  00000-0  13315-3 0  9998,2 53964  53.2174 207.5799 0001476  91.9469 268.1692 15.08845794 80997,6917.863,95.437,540.749,538.707,0.0
53964.0,STARLINK-4633,PAYLOAD,2024-03-22 14:22:53,15.08844632,0.0001458,53.2165,203.4178,81.4812,278.6345,0.00018932,2.727e-05,0.0,0 STARLINK-4633,1 53964U 22125A   24082.59923093  .00002727  00000-0  18932-3 0  9999,2 53964  53.2165 203.4178 0001458  81.4812 278.6345 15.08844632 81069,6917.866,95.437,540.74,538.723,0.0
53964.0,STARLINK-4633,PAYLOAD,2024-03-22 17:33:39,15.08849166,0.0001412,53.2161,202.8186,92.2767,267.8387,0.00022336,3.269e-05,0.0,0 STARLINK-4633,1 53964U 22125A   24082.73170737  .00003269  00000-0  22336-3 0  9999,2 53964  53.2161 202.8186 0001412  92.2767 267.8387 15.08849166 81159,6917.852,95.437,540.694,538.741,0.0
53964.0,STARLINK-4633,PAYLOAD,2024-03-23 12:38:17,15.08837714,0.0002158,53.2169,199.2453,134.0578,226.0592,-4.2875e-05,-9.71e-06,0.0,0 STARLINK-4633,1 53964U 22125A   24083.52659208 -.00000971  00000-0 -42875-4 0  9992,2 53964  53.2169 199.2453 0002158 134.0578 226.0592 15.08837714 81270,6917.887,95.438,541.245,538.259,0.0
53964.0,STARLINK-4633,PAYLOAD,2024-03-23 14:13:41,15.0882362,0.0002258,53.2175,198.9476,135.5598,224.5576,0.00032308,4.855e-05,0.0,0 STARLINK-4633,1 53964U 22125A   24083.59283968  .00004855  00000-0  32308-3 0  9997,2 53964  53.2175 198.9476 0002258 135.5598 224.5576 15.08823620 81284,6917.93,95.439,541.358,538.233,0.0
53964.0,STARLINK-4633,PAYLOAD,2024-03-24 12:29:04,15.08842653,0.0001251,53.2164,194.7885,100.0223,260.091,1.3163e-05,-7.8e-07,0.0,0 STARLINK-4633,1 53964U 22125A   24084.52019654 -.00000078  00000-0  13163-4 0  9993,2 53964  53.2164 194.7885 0001251 100.0223 260.0910 15.08842653 81424,6917.872,95.437,540.603,538.872,0.0
53964.0,STARLINK-4633,PAYLOAD,2024-03-24 17:15:14,15.08845417,0.000141,53.2153,193.8931,116.8077,243.306,8.3612e-05,1.043e-05,0.0,0 STARLINK-4633,1 53964U 22125A   24084.71891387  .00001043  00000-0  83612-4 0  9993,2 53964  53.2153 193.8931 0001410 116.8077 243.3060 15.08845417 81389,6917.864,95.437,540.704,538.753,0.0
53964.0,STARLINK-4633,PAYLOAD,2024-03-25 13:55:15,15.08845068,0.0001274,53.2163,190.0327,99.3291,260.7845,0.00030215,4.525e-05,0.0,0 STARLINK-4633,1 53964U 22125A   24085.58003635  .00004525  00000-0  30215-3 0  9998,2 53964  53.2163 190.0327 0001274  99.3291 260.7845 15.08845068 81587,6917.865,95.437,540.611,538.849,0.0
53964.0,STARLINK-4633,PAYLOAD,2024-03-26 12:10:40,15.0881914,0.0001347,53.216,185.8662,87.6986,272.416,-0.00029222,-4.933e-05,0.0,0 STARLINK-4633,1 53964U 22125A   24086.50740997 -.00004933  00000-0 -29222-3 0  9991,2 53964  53.2160 185.8662 0001347  87.6986 272.4160 15.08819140 81728,6917.944,95.439,540.741,538.877,0.0
53964.0,STARLINK-4633,PAYLOAD,2024-03-26 13:46:03,15.0882244,0.0001166,53.2158,185.5732,71.516,288.5959,-0.00030804,-5.184e-05,0.0,0 STARLINK-4633,1 53964U 22125A   24086.57364895 -.00005184  00000-0 -30804-3 0  9994,2 53964  53.2158 185.5732 0001166  71.5160 288.5959 15.08822440 81669,6917.934,95.439,540.606,538.992,0.0
53964.0,STARLINK-4633,PAYLOAD,2024-03-26 23:18:21,15.08831651,0.0001555,53.2181,183.7893,69.3297,290.7861,-0.00016321,-2.884e-05,0.0,0 STARLINK-4633,1 53964U 22125A   24086.97108754 -.00002884  00000-0 -16321-3 0  9990,2 53964  53.2181 183.7893 0001555  69.3297 290.7861 15.08831651 81796,6917.906,95.438,540.847,538.695,0.0
53964.0,STARLINK-4633,PAYLOAD,2024-03-27 13:36:49,15.08843184,0.0001257,53.2162,181.1118,78.4765,281.6368,0.00022412,3.281e-05,0.0,0 STARLINK-4633,1 53964U 22125A   24087.56724472  .00003281  00000-0  22412-3 0  9995,2 53964  53.2162 181.1118 0001257  78.4765 281.6368 15.08843184 81815,6917.871,95.437,540.605,538.866,0.0
53964.0,STARLINK-4633,PAYLOAD,2024-03-27 15:12:12,15.08849906,0.000134,53.2163,180.8162,89.1347,270.9798,0.00028624,4.272e-05,0.0,0 STARLINK-4633,1 53964U 22125A   24087.63348068  .00004272  00000-0  28624-3 0  9998,2 53964  53.2163 180.8162 0001340  89.1347 270.9798 15.08849906 81893,6917.85,95.437,540.642,538.788,0.0
53964.0,STARLINK-4633,PAYLOAD,2024-03-28 11:52:14,15.0884352,0.0001623,53.2163,176.9513,83.983,276.1347,0.00021835,3.189e-05,0.0,0 STARLINK-4633,1 53964U 22125A   24088.49460679  .00003189  00000-0  21835-3 0  9999,2 53964  53.2163 176.9513 0001623  83.9830 276.1347 15.08843520 82022,6917.87,95.437,540.857,538.612,0.0
53964.0,STARLINK-4633,PAYLOAD,2024-03-28 22:59:55,15.08860969,0.0001675,53.2161,174.8701,85.1942,274.9241,0.00051553,7.931e-05,0.0,0 STARLINK-4633,1 53964U 22125A   24088.95827907  .00007931  00000-0  51553-3 0  9990,2 53964  53.2161 174.8701 0001675  85.1942 274.9241 15.08860969 82093,6917.816,95.436,540.84,538.523,0.0
